{
    "links": {
        "self": "http://www.neowsapp.com/rest/v1/neo/3430385?api_key=iIulBulltgU6a56xZRHN4H3l9WmuAYTsLGpBGhQ2"
    },
    "id": "3430385",
    "neo_reference_id": "3430385",
    "name": "(2008 TX9)",
    "designation": "2008 TX9",
    "nasa_jpl_url": "http://ssd.jpl.nasa.gov/sbdb.cgi?sstr=3430385",
    "absolute_magnitude_h": 26.2,
    "estimated_diameter": {
        "kilometers": {
            "estimated_diameter_min": 0.0152951935,
            "estimated_diameter_max": 0.0342010925
        },
        "meters": {
            "estimated_diameter_min": 15.2951935344,
            "estimated_diameter_max": 34.201092472
        },
        "miles": {
            "estimated_diameter_min": 0.0095039897,
            "estimated_diameter_max": 0.021251567
        },
        "feet": {
            "estimated_diameter_min": 50.1810827555,
            "estimated_diameter_max": 112.2083122258
        }
    },
    "is_potentially_hazardous_asteroid": false,
    "close_approach_data": [
        {
            "close_approach_date": "2008-10-15",
            "close_approach_date_full": "2008-Oct-15 18:47",
            "epoch_date_close_approach": 1224096420000,
            "relative_velocity": {
                "kilometers_per_second": "10.6026139779",
                "kilometers_per_hour": "38169.4103204414",
                "miles_per_hour": "23716.9872071654"
            },
            "miss_distance": {
                "astronomical": "0.0292645545",
                "lunar": "11.3839117005",
                "kilometers": "4377915.019698915",
                "miles": "2720310.250778427"
            },
            "orbiting_body": "Earth"
        }
    ],
    "orbital_data": {
        "orbit_id": "8",
        "orbit_determination_date": "2017-04-06 09:02:39",
        "first_observation_date": "2008-10-08",
        "last_observation_date": "2008-10-10",
        "data_arc_in_days": 2,
        "observations_used": 22,
        "orbit_uncertainty": "8",
        "minimum_orbit_intersection": ".0173054",
        "jupiter_tisserand_invariant": "3.754",
        "epoch_osculation": "2454748.5",
        "eccentricity": ".510365486605094",
        "semi_major_axis": "1.912726895250855",
        "inclination": "7.65187761540786",
        "ascending_node_longitude": "199.9137789466015",
        "orbital_period": "966.2241181044772",
        "perihelion_distance": ".936537102613502",
        "perihelion_argument": "223.3586091757618",
        "aphelion_distance": "2.888916687888209",
        "perihelion_time": "2454786.359533979861",
        "mean_anomaly": "345.8941295529985",
        "mean_motion": ".3725843655261288",
        "equinox": "J2000",
        "orbit_class": {
            "orbit_class_type": "APO",
            "orbit_class_description": "Near-Earth asteroid orbits which cross the Earth’s orbit similar to that of 1862 Apollo",
            "orbit_class_range": "a (semi-major axis) > 1.0 AU; q (perihelion) < 1.017 AU"
        }
    },
    "is_sentry_object": false
}